LINK                    
1 42714U 98067LV  17345.94793917  .00027755  00000-0  28657-3 0  9994
2 42714  51.6350 225.2897 0003722 163.4190 196.6927 15.64551375 32358
